Name of Company,Are they a subsidiary of another umbrella brand?,"If Yes, Name of Parent Brand",Sector,HQ Location (Country),Name of Chief Executive ,First Name,Last Name,Company Address,Web URL of the Company,Company Email ID,,Link of Key Documents: Supplier Code of Conduct,Link of Key Document: Migrant Worker Policy,Link of Key Document: Human Rights Policy,Link of Key Document: Code of Conduct,Link of Key Document: Modern Slavery Statement,Link of Key Document: Sustainability Report,Implementation Guidance Link,Name of the Implementation Guidance,,Does the company prohibit recruitment fees to workers? Paste only relevant sentences.,Name of Reference Document 1,Reference Document Link,Reference to fee repayment if workers are found to have paid (up to three sentences),"If yes, provide link 1",Does the Recruitment Policy Include Requirement on Employer/ Suppliers to Pay,"Reference to Employer Pay Principle, Link",Reference to Employer Pay Principle,"Reference to Dhaka Principle, Link","Reference to Confiscation of travel/ identity document. If yes, mention up to three sentences.",Name of Reference Document 2,"If yes, provide link 2",,"Name of the Sustainability Representative, if available",Title of  Sustainability Representative,Sustainaiblity Department Email Address,Sustainability Representative Address,List if Membership of trade or sustainable business association
21St Century Fox,Yes,The Walt Disney,Entertainment,United States,James Murdoch,James,Murdoch,"1211 Avenue of the Americas New York, NY 10036 United States",,,,,,,,,,,,,,,,,,,,,,,,,,,,,,
23Andme,No,,Biotechnology,United States,Anne Wojcicki,Anne,Wojcicki,"899 W Evelyn Ave Mountain View, CA 94041United States",https://www.23andme.com/,https://customercare.23andme.com/hc/en-us/requests/new,,https://investors.23andme.com/static-files/4cb44af9-3d95-4a70-81b4-3a18b8046e66,,,"https://investors.23andme.com/static-files/51fd1f5a-9ffc-402a-bedb-cf35308c0af3#:~:text=Each%20person%20owes%20a%20duty,to%20personal%20gain%20or%20advantage.",,https://investors.23andme.com/static-files/8c8190f6-671e-426e-9960-a59c580b22e7,,,,"Workers shall not be required to pay employers’ or their agents’ recruitment fees or other similar fees to obtain their employment. If such fees are found to have been paid by workers, such fees shall be repaid to the worker",Supplier Code of Conduct,https://investors.23andme.com/static-files/4cb44af9-3d95-4a70-81b4-3a18b8046e66,"Workers shall not be required to pay employers’ or their agents’ recruitment fees or other similar fees to obtain their employment. If such fees are found to have been paid by workers, such fees shall be repaid to the worker",https://investors.23andme.com/static-files/4cb44af9-3d95-4a70-81b4-3a18b8046e66,,,,,"Suppliers shall not withhold workers’ original government-issued identification and travel documents. Suppliers are prohibited from destroying, concealing, confiscating, or otherwise restricting or denying workers’ access to employee identity or immigration papers.
",Supplier Code of Conduct,https://investors.23andme.com/static-files/4cb44af9-3d95-4a70-81b4-3a18b8046e66,,Guy Chayoun,"Vice President, Interim General Counsel",legal@23andme.com,,
3M,No,,Consumer Goods,United States,Mike Roman,Mike,Roman,"2501 Hudson Road, Maplewood, MN 55144-1000, USA",https://www.3m.com/,info@3m.com,,https://multimedia.3m.com/mws/media/1204567O/3m-supplier-responsibility-code-eng.pdf,,https://multimedia.3m.com/mws/media/1029705O/human-rights-policy.pdf,,https://multimedia.3m.com/mws/media/2323435O/3m-2023-modern-slavery-statement.pdf,https://multimedia.3m.com/mws/media/2292786O/3m-2023-global-impact-report.pdf,https://multimedia.3m.com/mws/media/2139707O/supplier-responsibility-code-assessment-guidance.pdf,Supplier Responsibility Code Assessment Guidance – For Suppliers,,"Additionally, 3M does not permit the practice of having employees pay recruitment fees or other related fees, in order to obtain employment. This practice can result in employees being forced to work in order to pay off debt incurred as part of securing employment. If an employee has been charged fees to secure employment, those fees shall be repaid to the employee.",Human Rights Policy,https://multimedia.3m.com/mws/media/1029705O/human-rights-policy.pdf,"If an employee has been charged fees to secure
employment, those fees shall be repaid to the employee.",https://multimedia.3m.com/mws/media/1029705O/human-rights-policy.pdf,Yes,,,,"3M will not retain original employee documents (such as government issued identification, passport or work permits) unless employees voluntarily request 3M to safely store them, or where required by law. If 3M retains employee documents, 3M will not deny employee access to the originals of their identity or immigration documents. ",Human Rights Policy,https://multimedia.3m.com/mws/media/1029705O/human-rights-policy.pdf,,Gayle Schueller,Chief Sustainability Officer,Sustainability@mmm.com,,"Responsible Business Alliance

Defense Industry Initiative "
7 Eleven,No,,Retail,United States,Joe DePinto,Joe,DePinto,"3200 Hackberry Rd. Irving, TX 75063 USA",https://www.7-eleven.com/,media@7-11.com,,https://assets.contentstack.io/v3/assets/bltbb619fd5c667ba2d/blt939d31170967b265/7-Eleven-Vendor-Supplier-Guidelines-2023.pdf,,,,https://www.7-eleven.com/california-transparency-in-supply-chains-act-disclosure#verification,,,,,,,,,,,,,,,,,,Marissa Jarratt,"EVP, chief marketing and sustainability officer",,,
Ab Inbev,No,,Food & Beverage,Belgium,Michel Doukeris,Michel,Doukeris,"Brouwerijplein 1 BE-3000 Leuven, Vlaams-Brabant",https://www.ab-inbev.com/,eu_media.relations@ab-inbev.com,,https://www.ab-inbev.com/assets/pdfs/policies/InBev_Responsible_Sourcing_Policy_2020.pdf,,https://www.ab-inbev.com/assets/pdfs/policies/InBev_-_Global_Human_Rights_Policy_2019_.pdf,https://www.ab-inbev.com/content/dam/universaltemplate/abinbev/pdf/AB%20InBev%20InterimCOBC%20Final%202020_New%20Principles.pdf,https://bbg.blob.core.windows.net/bbgstorage/2023-06/Modern_Slavery_Report_for_2022_FINAL_Signed_29_June_2023.pdf,https://www.ab-inbev.com/assets/pressreleases/2023/AB%20InBev_2022%20ESG%20Report_FINAL.pdf,,,, Individual workers and jobseekers must not be charged or bear recruitment fees or related costs payable to Business Partners or any third party working on behalf of the Business Partner,"Global Responsible
Sourcing Policy",https://www.ab-inbev.com/assets/pdfs/policies/InBev_Responsible_Sourcing_Policy_2020.pdf,,,,,,," workers must not be required to relinquish their identity papers, passports, ATM cards or work permits as a condition of employment.","Global Responsible
Sourcing Policy",https://www.ab-inbev.com/assets/pdfs/policies/InBev_Responsible_Sourcing_Policy_2020.pdf,,Ingrid De Ryck,Chief Sustainability Officer,corporategovernance@ab-inbev.com,,
Abb Ltd,No,,Manufacturing,Switzerland,Björn Rosengren,Björn,Rosengren,"Affolternstrasse 44, 8050 Zurich, Switzerland.",https://global.abb/group/en,eikechristian.meuter@ch.abb.com,,https://search.abb.com/library/Download.aspx?DocumentID=9AKK106103A9962&LanguageCode=en&DocumentPartId=&Action=Launch&_ga=2.202057937.1967061666.1709052378-415506418.1709052378,,https://search.abb.com/library/Download.aspx?DocumentID=9AKK105061D0010&LanguageCode=en&DocumentPartId=&Action=Launch&_ga=2.173289187.1967061666.1709052378-415506418.1709052378,https://search.abb.com/library/Download.aspx?DocumentID=9AKK107680A7765&LanguageCode=en&DocumentPartId=&Action=Launch&_ga=2.164302335.1967061666.1709052378-415506418.1709052378,https://search.abb.com/library/Download.aspx?DocumentID=9AKK108469A1421&LanguageCode=en&DocumentPartId=&Action=Launch&_ga=2.198789487.1967061666.1709052378-415506418.1709052378,https://sustainabilityreport.abb.com/2022/servicepages/downloads/files/sustainability-performance-abb-csr22.pdf,https://search.abb.com/library/Download.aspx?DocumentID=9AKK106354A0896&LanguageCode=en&DocumentPartId=&Action=Launch&_ga=2.171712992.1967061666.1709052378-415506418.1709052378,"Supplier Code of Conduct
Implementation guide",,"• Ensure that workers are not required by you or your labor agent or agency to pay any recruitment fees or other similar fees to employers or their agents to obtain their employment. If such fees are found to have been paid by the worker, the worker shall be reimbursed in full;",Supplier Code of Conduct,https://search.abb.com/library/Download.aspx?DocumentID=9AKK106103A9962&LanguageCode=en&DocumentPartId=&Action=Launch&_ga=2.201474641.1967061666.1709052378-415506418.1709052378,"• Ensure that workers are not required by you or your labor agent or agency to pay any recruitment fees or other similar fees to employers or their agents to obtain their employment. If such fees are found to have been paid by the worker, the worker shall be reimbursed in full;",https://search.abb.com/library/Download.aspx?DocumentID=9AKK106103A9962&LanguageCode=en&DocumentPartId=&Action=Launch&_ga=2.201474641.1967061666.1709052378-415506418.1709052378,,,,,"Unless stipulated by applicable law, not require workers to surrender their original personal certificates and identifications, such as government-issued identification, passports or work permits, as a condition of employment;",Supplier Code of Conduct,https://search.abb.com/library/Download.aspx?DocumentID=9AKK106103A9962&LanguageCode=en&DocumentPartId=&Action=Launch&_ga=2.201474641.1967061666.1709052378-415506418.1709052378,,Karin Lepasoon,Chief Communications and Sustainability Officer,HQ-sustainability@abb.com,,
Abbott,Yes,,Health Care Equipment,United States,Robert Ford,Robert,Ford,"100 Abbott Park Road, Abbott Park, Illinois 60064",https://www.abbott.com/,contactus@abbott.com,,https://dam.abbott.com/en-us/documents/pdfs/partners/Supplier-Guidelines-FINAL-ENGLISH.pdf,,https://www.abbott.com/content/dam/corp/abbott/en-us/documents/pdfs/transparency/Position-Statement-on-Human-Rights-FINAL.pdf,https://dam.abbott.com/en-us/documents/pdfs/investors/business-conduct-code-english.pdf,https://www.abbott.co.uk/content/dam/corp/abbott/en-gb/documents/pdfs/UK-Modern-Slavery-Act-2015-2022-Statement-FINAL.pdf,https://dam.abbott.com/en-us/documents/pdfs/abbott-citizenship/Abbott-2022-Global-Sustainability-Report-June-2023.pdf,,,,"Please know that Abbott does not conduct interviews via chat rooms, charge candidates an advance fee of any kind (e.g., placement fees, processing fees, etc.), nor does it offer positions of employment without undergoing a thorough recruiting process.",Recruitment Fraud,https://www.abbott.com/careers/working-with-us/recruitment-fraud.html,,,,,,,,,,,Kathryn McKenzie,Global Citizenship and Sustainability and Vice President,responsibility@abbott.com,,
Abbvie,Yes,,Pharmaceutical,United States,Richard Gonzalez,Richard,Gonzalez,"One North Waukegan Road, North Chicago, IL 60064, USA",https://www.abbvie.com/,gabrielle.tarbert@abbvie.com,,https://www.abbvie.com/content/dam/abbvie-com2/pdfs/suppliers/abbvie-supplier-code-of-conduct-brochure.pdf,,,https://www.abbvie.com/content/dam/abbvie-com2/pdfs/cobc/cobc_English.pdf,,https://www.abbvie.com/content/dam/abbvie-com2/pdfs/abbvie-esg-action-report.pdf,,,,,,,,,,,,,,,,,Eileen Openbrier,Director Environmental Compliance & Sustainability,,,
Abercrombie Fitch Company,No,,Apparel and Footwear,United States,Fran Horowitz,Fran,Horowitz,"6301 Fitch Path New Albany, OH 43054 United States",https://www.abercrombie.com/,customerservice@abercrombie.com,,"https://corporate.abercrombie.com/sustainability/policies-resources/vendor-code-of-conduct/#:~:text=vendor's%20actions%2C%20too.-,A%26F%20Co.,essential%20for%20all%20A%26F%20Co.",https://corporate.abercrombie.com/sustainability/social-impact/migrant-employees/,,https://abercrombieandfitchcompany.gcs-web.com/static-files/ecf0fd74-e304-41c5-83c3-4de96739dba0/,https://corporate.abercrombie.com/sustainability/policies-resources/california-transparency-in-supply-chains-act/,https://corporate.abercrombie.com/sustainability/strategy-and-goals/#progress-highlights,,,,"Fees/Costs: Workers shall not be responsible for any fees paid to agencies or the factory in exchange for employment, nor for medical examinations (if they are mandatory), nor for inbound or outbound travel costs.",Migrant Employee Addendum,https://corporate.abercrombie.com/sustainability/social-impact/migrant-employees/,,,,,,,"Passport Policy: Each migrant worker shall understand that neither the agency nor factory shall retain a worker’s passport for any reason other than processing work visas. All migrant workers shall be given a secure place to store their personal documents (i.e. passports, working papers).",Migrant Employee Addendum,https://corporate.abercrombie.com/sustainability/social-impact/migrant-employees/,,Kim Harr,Vice President Global Sustainability,Sustainability@anfcorp.com,,"American Apparel Footwear Association  
The Fair Labor Association
Mekong Club
United Nations Global Compact"
Accenture,No,,IT Service,Ireland,Julie Sweet,Julie,Sweet,"1 Grand Canal Square, Grand Canal Harbour, Dublin 2, Ireland",https://www.accenture.com,rachel.frey@accenture.com,,https://www.accenture.com/content/dam/accenture/final/a-com-migration/pdf/pdf-58/accenture-supplier-standards-of-conduct-final-en.pdf,,,https://www.accenture.com/content/dam/accenture/final/a-com-migration/pdf/pdf-63/accenture-cobe-brochure-english.pdf,https://www.accenture.com/content/dam/accenture/final/accenture-com/document/Accenture-Modern-Slavery-Transparency-Statement-2023.pdf,https://www.accenture.com/content/dam/accenture/final/corporate/corporate-initiatives/sustainability/document/360-Value-Report-2023.pdf#zoom=50,,,,"Accenture suppliers do not use, encourage or engage in human trafficking.They do not, among other things: destroy, conceal, confiscate or otherwisedeny employees’ access to identity or immigration documents; charge workersrecruiting fees;",Supplier Standards of Conduct,https://www.accenture.com/content/dam/accenture/final/a-com-migration/pdf/pdf-58/accenture-supplier-standards-of-conduct-final-en.pdf,,,,,,,"Accenture suppliers do not use, encourage or engage in human trafficking. They do not, among other things: destroy, conceal, confiscate or otherwise deny employees’ access to identity or immigration documents; charge workers recruiting fees;",Supplier Standards of Conduct,https://www.accenture.com/content/dam/accenture/final/a-com-migration/pdf/pdf-58/accenture-supplier-standards-of-conduct-final-en.pdf,,Sean McKnight,Managing Director: Sustainability,,,
Accor,No,,Hospitality,France,Sébastien Bazin,Sébastien,Bazin,"82, rue Henri Farman - 92130 Issy-les-Moulineaux, France",https://group.accor.com/en,charlotte.thouvard@accor.com,,https://group.accor.com/-/media/Corporate/Group/Documents/2023/04/28/Responsible_Procurement_Charter_vEN.pdf,,https://group.accor.com/en/group/our-commitments/accor-ethics-and-compliance,https://group.accor.com/-/media/Corporate/Talent/PDF-for-pages/Charte-ethique-et-RSE/ACCOR_Ethics_and_Corporate_Social_Responsibility_Charter_20_ENG.pdf,https://modernslaveryregister.gov.au/statements/file/c11493b0-f699-40b4-ac2f-780d9c2164ea/,https://group.accor.com/-/media/Corporate/Investors/Documents-de-reference/ACCOR_RI_2022_UK_vlast.pdf,,,,,,,,,,,,,,,,,Brune Poirson,Chief Sustainability Officer,,,
Ace Hardware,Yes,,Retail,United States,John Venhuizen,John,Venhuizen,"2200 Kensington Court. Oak Brook, IL 60523. USA",https://www.acehardware.com/,customerservice@acehardware.com,,,,,,,,,,,,,,,,,,,,,,,,Tyler Kesler,Environmental Program Manager,CareCenter@acehardware.com,,
Acer,No,,Electronics,Taiwan,Jason Chen,Jason,Chen,"No. 88, Section 1, Xintai 5th Road, Xizhi, New Taipei City 221, Taiwan",https://www.acer.com/,support@acer.com,,https://www.acer.com/sustainability/en/responsible-supply-chain/supply-chain-management-system/supplier-code-of-conduct,,https://www.acer.com/sustainability/uploads/files/shares/inclusive-workplace-and-society/human-rights-policy-en.pdf,https://www.acer.com/sustainability/uploads/files/shares/esg-governance/Standards_of_Business_Conduct_en.pdf,https://www.acer.com/sustainability/uploads/files/shares/responsible-supply-chain/Slavery_and_Human_Trafficking_Statement_ESG_2022.pdf,https://www.acer.com/sustainability/uploads/files/shares/sustainability-report/2022_Acer_Sustainability_Report.pdf,,,,,,,,,,,,,,,,,Lydia Wu,"General Counsel
Corporate Governance Officer",cr@acer.com,,Responsible Business Alliance
Activision,Yes,,Entertainment,United States,Bobby Kotick,Bobby,Kotick,"3100 Ocean Park Blvd, Santa Monica, CA 90405, United States",https://www.activision.com/,support@activision.com,,https://investor.activision.com/static-files/e614a235-73b3-407f-a4b4-1bff14cc6306,,,https://www.activision.com/cdn/activisionblizzard/coc/Activision-Blizzard-Code-of-Conduct-English.pdf,https://investor.activision.com/static-files/6c522f28-4291-42df-b21d-c736a284fe78,https://www.activisionblizzard.com/content/dam/atvi/activisionblizzard/ab-touchui/our-commitments/docs/2022_ESG_Report.pdf,,,,,,,,,,,,,,,,,Dan Goldenberg,"Vice President, Corporate Social Responsibility And ESG / Head Of Sustainability",esg@activision.com,,
Activision Blizzard,No,,Entertainment,United States,Bobby Kotick,Bobby,Kotick,"3100 Ocean Park Blvd, Santa Monica, CA 90405, United States",https://www.activisionblizzard.com/,pr@activisionblizzard.com,,,,,,,,,,,,,,,,,,,,,,,,,,,,
Adidas,No,,Apparel and Footwear,Germany,Bjørn Gulden,Bjørn,Gulden,Adi-Dassler-Strasse 1 91074 Herzogenaurach Germany,https://www.adidas.com/,corporate.press@adidas-group.com,,https://www.adidas-group.com/media/filer_public/23/b4/23b41dce-85ba-45a7-b399-28f5835d326f/adidas_workplace_standards_2017_en.pdf,https://www.adidas-group.com/media/filer_public/71/0d/710d0ab7-b4ed-4dd7-8783-e36df063face/2023_policy_on_responsible_recruitment.pdf,https://www.adidas-group.com/media/filer_public/71/ec/71ec086a-3f28-418e-882a-e2f2f8433292/adidas_human_rights_policy.pdf,https://www.adidas-group.com/media/filer_public/d9/05/d9051875-01f3-4d17-a98b-31017b9d97ed/adidas_fair_play_code_of_conduct_english.pdf,https://www.adidas-group.com/media/filer_public/64/c8/64c8d12f-d7b4-4547-a1f2-8d2945861140/adidas_policy_on_modern_slavery_2023.pdf,https://www.adidas-group.com/media/filer_public/39/e8/39e887ed-0867-4c53-b3d4-36348f43cbb1/annual_report_2022_en_secured.pdf,https://www.adidas-group.com/media/filer_public/c1/d7/c1d7c117-3a93-4c06-bf77-f91759df786e/adidas_responsible_sourcing__purchasing_policy.pdf,"Global Policy Manual
Responsible Sourcing & Purchasing Policy",,"No Fees: No recruitment fees or related costs should be charged to, or otherwise borne by, workers. A clear definition on the types of fees and costs can be found in the Responsible Recruitment section of the Guidelines on Employment Standards.",Policy on Responsible Recruitment and Fair Treatment of Migrant Workers,https://res.cloudinary.com/confirmed-web/raw/upload/v1706098726/adidas-group/sustainability/policies/2023_policy_on_responsible_recruitment_teme65.pdf,"Workers receive a timely refund of fees and costs paid to obtain or maintain their job;",https://res.cloudinary.com/confirmed-web/raw/upload/v1706098726/adidas-group/sustainability/policies/2023_policy_on_responsible_recruitment_teme65.pdf,Yes,https://res.cloudinary.com/confirmed-web/raw/upload/v1706098726/adidas-group/sustainability/policies/2023_policy_on_responsible_recruitment_teme65.pdf,"We support the Dhaka Principles for Migration with Dignity to enhance respect for the rights of migrant workers from the moment of recruitment, during employment and through to further employment or safe return, and endorse the Employer Pays Principle, that no worker should pay for their job.",https://res.cloudinary.com/confirmed-web/raw/upload/v1706098726/adidas-group/sustainability/policies/2023_policy_on_responsible_recruitment_teme65.pdf,"Workers’ identity documents such as passports, land title deeds, diplomas, employment contracts and so on should not be confiscated, destroyed or retained.",Policy on Responsible Recruitment and Fair Treatment of Migrant Workers,https://res.cloudinary.com/confirmed-web/raw/upload/v1706098726/adidas-group/sustainability/policies/2023_policy_on_responsible_recruitment_teme65.pdf,,Katja Schreiber,SVP of Sustainability,sustainability@adidas.com,,Fair Labor Association
ADM,No,,Food Processing,United States,Juan Luciano.,Juan,Luciano.,"4666 Faries Parkway Decatur, IL 62526 United States",https://www.adm.com/,imprensa@adm.com,,https://www.adm.com/globalassets/procurement/suppliers/potential-suppliers/supplierexpectations---english-2022-_10-28-22_.pdf,,https://www.adm.com/globalassets/sustainability/goals--programs/human-rights-policy/human-rights-policy-2021-update-2.pdf,https://www.adm.com/globalassets/about-adm/our-company/code-of-conduct/adm_codeofconduct_2024_english.pdf,https://www.adm.com/link/c8e77635e4ec4a46a9ca9237cae4d01f.aspx/,https://www.adm.com/globalassets/sustainability/sustainability-reports/2022-reports/adm-2022-corporate-sustainability-report_final.pdf,https://www.adm.com/globalassets/sustainability/sustainability-reports/managing-supplier-non--compliance/managing-non-compliant-suppliers_english.pdf,Managing Supplier Non-Compliance,,"Employees should not be charged fees in exchange for employment or have collateral in the form of money, identification or other personal belongings held – without workers’ consent – as a condition of employment.",Supplier Code of Conduct,https://www.adm.com/globalassets/procurement/suppliers/potential-suppliers/supplierexpectations---english-2022-_10-28-22_.pdf,,,,,,,". Employees should not be charged fees in exchange for employment or have collateral in the form of money, identification or other personal belongings held – without workers’ consent – as a condition of employment.",Supplier Code of Conduct,https://www.adm.com/globalassets/procurement/suppliers/potential-suppliers/supplierexpectations---english-2022-_10-28-22_.pdf,,Justin Murrill,Director of Corporate Responsibility ,responsibility@adm.com,,
Adobe,No,,Software,United States,Shantanu Narayen,Shantanu,Narayen,"345 Park Ave, San Jose, CA 95110",https://www.adobe.com/,adobepr@adobe.com,,https://www.adobe.com/content/dam/cc/en/corporate-responsibility/pdfs/adobe-business-partner-code-of-conduct.pdf,,https://www.adobe.com/corporate-responsibility/human-rights-policy.html,https://www.adobe.com/content/dam/cc/en/corporate-responsibility/pdfs/code-of-conduct-ext.pdf,https://www.adobe.com/content/dam/cc/en/corporate-responsibility/pdfs/adobe-slavery-and-human-trafficking-policy-statement.pdf,https://www.adobe.com/content/dam/cc/en/corporate-responsibility/pdfs/Adobe-CSR-Report-2022.pdf,,,,,,,,,,,,,,,,,Mark Heintz,Head of Corporate Sustainability,createchange@adobe.com,,
Adt Corporation,No,,Other,United States,Jim DeVries,Jim,DeVries,"1501 Yamato Rd, Boca Raton, FL 33431, United States.",https://www.adt.com/,media@adt.com,,,,,,,,,,,,,,,,,,,,,,,,Steve Avadek,Senior Director ESG & Sustainability, investorrelations@adt.com,,
Adyen,No,,Financial Services,Netherlands,Pieter van der Does,Pieter,van der Does,"Simon Carmiggeltstraat 6-50, 1011 DJ Amsterdam, Netherlands.",https://www.adyen.com/,support@adyen.com,,,,,https://www.adyen.com/dam/jcr:5c531b28-1ce8-4929-a772-c0a8e0a3584d/The%2520Adyen%2520way%2520of%2520building%2520an%2520ethical%2520business.pdf,https://modernslaveryregister.gov.au/statements/file/39361735-61e0-47de-801f-e2e4381a76c7/,https://www.adyen.com/dam/jcr:043d4851-a77f-4cac-b872-1d4ef3de846c/Adyen-Annual-Report-2021.pdf,,,,,,,,,,,,,,,,,Brian O'Malley,Head Of Sustainability,ir@adyen.com,,
Aecom,No,,Construction / Engineering,United States,Troy Rudd,Troy,Rudd,"1999 Avenue of the Stars, 29th Floor Los Angeles, CA 90067 United States",https://www.aecom.com/,general.inquiries@aecom.com,,https://aecom.com/wp-content/uploads/documents/policies/code_of_conduct/Supplier_Code_of_Conduct_EC1_001_PL4.pdf,,https://aecom.com/wp-content/uploads/documents/policies/AECOM_Human_Rights_Statement.pdf,https://aecom.com/wp-content/uploads/documents/policies/code_of_conduct/Aecom_Code_of_Conduct_ENGLISH_13.pdf,https://aecom.com/wp-content/uploads/documents/policies/AECOM_Anti_Human_Trafficking_Policy.pdf,https://investors.aecom.com/static-files/e9208465-0b1b-45e7-bc7e-c4076d474d23,https://investors.aecom.com/static-files/55b13a45-f1b2-4c06-a6f2-6173ef80a724,Social Value Policy,,"Prohibited activities include, among other things, engaging or participating in human trafficking, procuring commercial sex acts, using forced labor, denying employees access to identity or immigration documents, engaging in fraudulent or misleading recruitment practices, using third party recruiters who have not represented that they comply with local labor laws, charging recruitment fees to employees","Modern Slavery
Policy",https://aecom.com/wp-content/uploads/documents/policies/AECOM_Anti_Human_Trafficking_Policy.pdf,,,,,,,"Prohibited activities include, among other things, engaging or participating in human trafficking, procuring commercial sex acts, using forced labor, denying employees access to identity or immigration documents, engaging in fraudulent or misleading recruitment practices, using third party recruiters who have not represented that they comply with local labor laws, charging recruitment fees to employees","Modern Slavery
Policy",https://aecom.com/wp-content/uploads/documents/policies/AECOM_Anti_Human_Trafficking_Policy.pdf,,Sarah Levitt ,Chief Ethics and Compliance Officer,general.inquiries@aecom.com,,Defense Industry Initiative 
AEG Power Solutions,No,,Technology,Russia,Franck Audrain,Franck ,Audrain,"st. Novoslobodskaya, 23, office 346,
127055 Moscow",https://www.aegps.com/ru/,sales.ru@aegps.com,,https://www.aegps.com/ru/supplier-portal/quality-guidelines-for-suppliers/,,,https://www.aegps.com/en/wp-content/uploads/2023/07/CODE_OF_CONDUCT_EN__2022_.pdf,,,,,,,,,,,,,,,,,,,,,,,
AIG (American Investment Group),No,,Financial Services,United States,Peter Zaffino,Peter,Zaffino,"1 New York Plaza, New York, NY 10004, United States",https://www.aig.com/,IR@aig.com,,https://www.aig.com/content/dam/aig/america-canada/us/documents/about-us/code-of-conduct/aig-supplier-code-of-conduct-english.pdf,,https://www.aig.com/content/dam/aig/america-canada/us/documents/about-us/policy/aig-human-rights-statement.pdf,https://www.aig.com/content/dam/aig/america-canada/us/documents/about-us/code-of-conduct/aig-employee-code-of-conduct-english.pdf,https://www.aig.co.uk/content/dam/aig/emea/united-kingdom/documents/aiguk-modern-slavery-statement.pdf,https://www.aig.com/content/dam/aig/america-canada/us/documents/about-us/report/aig-esg-report_2022.pdf,,,,,,,,,,,,,,,,,"Jennifer Waldner Grant
",Chief Sustainability Officer,sustainability@aig.com,,
Airasia,Yes,Tune Group,Aviation ,Malaysia,Tony Fernandes,Tony,Fernandes,"LCC Terminal, Jalan KLIA S3, Southern Support Zone, Kuala Lumpur International Airport, 64000 Sepang, Selangor, Malaysia",https://www.airasia.com,contact@airasia.com,,https://www.capitala.com/misc/AAPROF006_Supplier_Code_of_Conduct.pdf,,,,,https://hub.optiwise.io/en/documents/71059/aav-sd-report-2022-en.pdf,,,,,,,,,,,,,,,,,Mun Ching Yap,Chief Sustainability Officer,sustainability@airasia.com,,
AirBnb,No,,Technology,California,Brian Chesky,Brian,Chesky,"888 Brannan Street San Francisco, CA 94103 United States",https://www.airbnb.com/,press-asia@airbnb.com,,,,https://s26.q4cdn.com/656283129/files/doc_downloads/governance_doc_updated/Airbnb-Human-Rights-Policy-Statement.pdf,https://s26.q4cdn.com/656283129/files/doc_downloads/governance_doc_updated/Code_of_Ethics.pdf,https://a0.muscache.com/static/uk-modern-slavery-act-statement.pdf,https://airbnb2020ipo.q4web.com/files/doc_downloads/governance_doc_updated/2023/Airbnb-SustainabilityandCommunityUpdate-2023-111623.pdf,,,,,,,,,,,,,,,,,Ameet Konkar,Head of Sustainability,,,
Airbus,No,,Aviation ,France,Guillaume Faury,Guillaume,Faury,"1 Rond-Point Emile Dewoitine 91711 Saint-Quentin-en-Yvelines Cedex, France",https://www.airbus.com/,guillaume.steuer@airbus.com,,https://www.airbus.com/sites/g/files/jlcbta136/files/2021-07/Airbus-Supplier-Code-of-Conduct.pdf,,https://www.airbus.com/sites/g/files/jlcbta136/files/2024-01/human_rights_policy_statement_january_2024_0.pdf,https://www.airbus.com/sites/g/files/jlcbta136/files/2023-11/Code-of-Conduct-English-version.pdf,https://www.airbus.com/sites/g/files/jlcbta136/files/2023-05/Airbus%20SE%20Modern%20Slavery%20Statement%202022.pdf,https://sustainability-approach.airbus.com/,,,,"Suppliers must not charge employees fees, recruitment costs or deposits, directly or indirectly, as a precondition of work.",Supplier Code of Conduct,https://www.airbus.com/sites/g/files/jlcbta136/files/2021-07/Airbus-Supplier-Code-of-Conduct.pdf,,,,,,,"Suppliers should not retain any form of employee identifi cation (passports or work permits), nor destroy or deny access to such documentation, as a condition of employment unless required by applicable law",Supplier Code of Conduct,https://www.airbus.com/sites/g/files/jlcbta136/files/2021-07/Airbus-Supplier-Code-of-Conduct.pdf,,Julie Kitcher,Chief Sustainability Officer,compliance@airbus.com,,Responsible Business Alliance
Akamai,No,,Technology,United States,Tom Leighton,Tom,Leighton,"150 Broadway, Cambridge, MA 02142, United States",https://www.akamai.com/,AkamaiPR@akamai.com,,https://www.akamai.com/site/en/documents/akamai/supplier-diversity-program.pdf,,https://www.akamai.com/site/en/documents/akamai/akamai-human-rights-policy.pdf,https://www.akamai.com/content/dam/sdl-content/us/en/multimedia/documents/akamai/akamai-code-of-business-conduct-and-ethics.pdf,https://www.akamai.com/site/en/documents/akamai/2023/modern-slavery-and-human-trafficking-statement.pdf,https://www.akamai.com/resources/research-paper/akamai-2022-environmental-social-governance-report,,,,,,,,,,,,,,,,,Mike Mattera,Director of Corporate Sustainability,,,
Alabama Power Company,Yes,Southern Company,Energy ,United States,Mark Crosswhite,Mark,Crosswhite,"700 18th St N, Birmingham, AL 35203",https://www.alabamapower.com/,https://www.alabamapower.com/company/media-room/media-inquiry-form.html,,,,,,,,,,,,,,,,,,,,,,,,Nicole Faulk,Senior Vice President Sustainability and Environmental Affairs ,,,
Alarm Com,No,,Technology,United States,TJ Kennedy,TJ,Kennedy,"8281 Greensboro Drive, Suite 100, Tysons, VA 22102",https://alarm.com/,info@alarm.com,,,,,https://s24.q4cdn.com/652723797/files/doc_downloads/corp_gov/Code_of_Business_Conduct.pdf,,,,,,,,,,,,,,,,,,,Daniel Ramos,"Chief Legal and Compliance Officer, Senior Vice President ",,,
Alaska Air Group,No,,Aviation ,United States,Ben Minicucci,Ben,Minicucci,"450 Alaska Airlines Way, Seattle, WA 98188, United States",https://www.alaskaair.com/,guestrelations@alaskaair.com,,https://www.alaskaair.com/-/media/Files/pdf/terms/AAG-Supplier-Code-of-Conduct-2017-Gold.ashx?la=en&hash=8040367A2B390807B2BA2BD497C522FD85E38667,,https://splash.alaskasworld.com/es/documents/Our_People_Policies.pdf,https://investor.alaskaair.com/static-files/f5268975-0fea-4ef3-94fa-6e760f104085,,https://investor.alaskaair.com/static-files/50fcf9f7-adb3-493e-b028-64fc25302b4b,,,,Employees must not be required to make monetary deposit as a condition of employment.,Supplier Code of Conduct,https://www.alaskaair.com/-/media/Files/pdf/terms/AAG-Supplier-Code-of-Conduct-2017-Gold.ashx?la=en&hash=8040367A2B390807B2BA2BD497C522FD85E38667,,,,,,,Employees' identification and/or immigration documents must not be surrendered or withheld as a condition of employment.,Supplier Code of Conduct,https://www.alaskaair.com/-/media/Files/pdf/terms/AAG-Supplier-Code-of-Conduct-2017-Gold.ashx?la=en&hash=8040367A2B390807B2BA2BD497C522FD85E38667,,Ryan Spies,"Managing Director, Sustainability",HRCompliance@alaskaair.com,,
Alation,No,,Software,United States,Satyen Sangani,Satyen,Sangani,"201 Redwood Shores Pkwy, Suite 200, Redwood City, CA 94065, United States.",https://www.alation.com/,contact@alation.com,,,,,,,,,,,,,,,,,,,,,,,,,,,,
Albertsons Companies,Yes,Safeway,Retail,United States,Vivek Sankaran,Vivek,Sankaran,"250 Parkcenter Blvd, Boise, ID 83706, United States",https://www.albertsons.com/,customerservice@albertsons.com,,https://s29.q4cdn.com/239956855/files/our_impact/Supplier-Sustainability-Expectations-1-7-2022.pdf,,,,,https://s29.q4cdn.com/239956855/files/our_impact/sustainability_doc/albcdacsiv199540_aci_23_esg-report-1-2.pdf,,,,,,,,,,,,,,,,,Suzanne Long,Chief Sustainability and Transformation Officer,,,
Alcon,No,,Pharmaceutical,Switzerland,David Endicott,David,Endicott,"6201 South Freeway, Fort Worth, TX 76134, United States",https://www.alcon.com/,alcon.com,,https://alcon.widen.net/s/6sprpmcnhw/alcon-third-party-coc_en-en,,https://www.alcon.com/sites/g/files/rbvwei496/files/2022-11/Global_Policy_on_Human_Rights_EN_v.1_16_Sept_2022.pdf,https://integrity.alcon.com/code-business-conduct,https://www.alcon.com/sites/g/files/rbvwei496/files/2021-07/2021_Alcon_Supply_Chain_Modern_Slavery_Human_Trafficking_Statement_BOD_approved_28Apr2021.pdf,https://alcon.widen.net/s/nqcrlmgg2s/social-impact-and-sustainability-report-2022,https://alcon.widen.net/s/c5sztbsnxl/alcon-comprehensive-integrity-compliance-program-description,ALCON COMPREHENSIVE INTEGRITY AND COMPLIANCE PROGRAM,,,,,,,,,,,"Retention of Identity Papers/Passports: Workers must not be required to hand over their identity papers to secure employment unless required to do so by local law. If this is the case, workers must always have access to their papers",Supplier Code of Conduct,https://alcon.widen.net/s/6sprpmcnhw/alcon-third-party-coc_en-en,,Rhonda Norton,"Head, Global HSE",ESG@alcon.com,,
Aldi UK,No,,Retail,United Kingdom,Giles Hurley,Giles,Hurley,"Holly Lane, Atherstone, Warwickshire, CV9 2SQ",https://www.aldi.co.uk/,customer.service@aldi.co.uk,,,,,https://cdn.aldi-digital.co.uk/6igYrCAdkXDTQ6bCCBKfQhOEeKM.pdf,https://cdn.aldi-digital.co.uk/MlM6hJGRye$Gk0EsDtHHObnLS@o.pdf,https://cdn.aldi-digital.co.uk/Wcp0cV$cSbNIAFFjAeT5R@fSMBQ.pdf,,,,,,,,,,,,,,,,,Liz Fox,National Sustainability Director,aldicr@aldi.co.uk,,
Aldi USA,No,,Retail ,United States,Jason Hart,Jason,Hart,"1200 N Kirk Rd, Batavia, IL 60510",https://www.aldi.us/,customer.service@aldi.us,,,,,https://corporate.aldi.us/fileadmin/fm-dam/Corporate_Responsibility/CR_Updates/ALDI_Code_of_Conduct_Handbook.pdf,https://corporate.aldi.us/corporate-sustainability/supply-chain/california-transparency-in-supply-chains-act/,https://corporate.aldi.us/fileadmin/fm-dam/Progress_Report/Progress_Report_Dec_2023/ALDI_Sustainability_Progress_Report_2022_Highlights.pdf,,,,,,,,,,,,,,,,,Una Hrnjak,Director of Sustainability ,,,
Aldi South,No,,Retail,,,,,,https://cr.aldisouthgroup.com/en,responsibility@aldisouthgroup.com,,https://cr.aldisouthgroup.com/en/download/aldi-business-partner-sustainability-standards,,https://cr.aldisouthgroup.com/en/download/aldi-human-rights-and-environmental-due-diligence-policy,,https://cr.aldisouthgroup.com/en/downloads/international-policy-forced-labour,,https://corporate.aldi.us/fileadmin/fm-dam/Corporate_Responsibility/CR_Updates/ALDI_SocialStandardsProduction.pdf,"“Social Standards
in Production”",,"Business partners must abide by the Employer Pays Principle, meaning that workers must not pay for their employment in the form of recruitment fees and related costs (as defined by the ILO), and all costs related to employment and recruitment must be borne by the employer.",Supplier Code of Conduct,https://cr.aldisouthgroup.com/en/download/aldi-business-partner-sustainability-standards,,,Yes,https://cr.aldisouthgroup.com/en/download/aldi-business-partner-sustainability-standards,"Work may not be exacted on the basis of debt. Business partners must abide by the Employer Pays Principle, meaning that workers must not pay for their employment in the form of recruitment fees and related costs (as defined by the ILO), and all costs related to employment and recruitment must be borne by the employer",https://cr.aldisouthgroup.com/en/downloads/international-policy-forced-labour,"Employers may not retain workers’ money (including wages owed) or possessions such as identity documents against the worker’s will, with the intention of binding workers to the place of employment.",Supplier Code of Conduct,https://cr.aldisouthgroup.com/en/download/aldi-business-partner-sustainability-standards,,Anke Ehlers,Managing Director of International Sustainability,responsibility@aldisouthgroup.com,,
Align Technology,No,,Medical Device,United States,Joe Hogan,Joe,Hogan,"2820 Orchard Parkway, San Jose, CA 95134, United States.",https://www.aligntech.com/,corporateinfo@aligntech.com,,,,,,https://assets.ctfassets.net/vh25xg5i1h5l/7990b8YxqNubPDuS7FTbga/8c5360bb3a91cab4a4f09113618ac95d/Align_Australia_Group_Modern_Slavery_Statement_FY2022.pdf,https://www.aligntech.com/about/corporate_social_responsibility,https://investor.aligntech.com/static-files/8cc0ac7e-b6af-41f7-ba86-0fc4c10dfbe7,"CLEAR: Conducting Legal Ethical and Responsible Business
Our Global Compliance & Ethics Program",,We do not charge any fees to individuals for the sourcing of the employment opportunities they are offered;,Modern Slavery Statement,https://assets.ctfassets.net/vh25xg5i1h5l/7990b8YxqNubPDuS7FTbga/8c5360bb3a91cab4a4f09113618ac95d/Align_Australia_Group_Modern_Slavery_Statement_FY2022.pdf,,,,,,,,,,,Tim Warren,Director of Environmental Health and Safety & Sustainability,,,
Allergan,Yes,Abbvie,Pharmaceutical,Ireland,Brenton Saunders,Brenton,Saunders,"Longphort House Earlsfort Cntr Lower Leeson Street Dublin, 2 Ireland.",https://www.allergan.com/,info@allergan.com,,,,,,,,,,,,,,,,,,,,,,,,,,customerservice@abbvie.com,,
Allstate,No,,Insurance,United States,Thomas Wilson,Thomas,Wilson,"3100 Sanders Road Northbrook, IL 60062",https://www.allstate.com/,https://www.allstate.com/help-support/contact/email%3Fintcid%3DILC-AllstateHelpcenter%7CArticleCopy%7CEmailUs,,https://www.allstate.com/resources/allstate/attachments/procurement/supplier_code_ethics.pdf,,,https://www.allstatecorporation.com/about/global-code-of-conduct.aspx,https://www.allstate.com/resources/allstate/attachments/northern-ireland/modern-slavery-statement-march-2017-published-version.pdf,https://delivery.contenthub.allstate.com/api/public/content/2eda6586d01b4b3bb0605047eacdc4e7?v=19494efc&adobe_mc=MCMID%3D42809427735445872331338252974791694813%7CMCORGID%3D97021C8B53295DF30A490D4D%2540AdobeOrg%7CTS%3D1709274418&_gl=1*drwdee*_ga*MTIwNTIzODg3MC4xNzA5Mjc0NDIw*_ga_E5RN65WV3V*MTcwOTI3NDQxOS4xLjAuMTcwOTI3NDQxOS4wLjAuMA..&_ga=2.32303550.1266890940.1709274420-1205238870.1709274420,,,,,,,,,,,,,,,,,Susan L. Lees,Chief Sustainability Officer,SupplierMentoring@allstate.com,,
Alstom,No,,Manufacturing,France,Henri Poupart-Lafarge,Henri,Poupart-Lafarge,"48 Rue Albert Dhalenne, 93400 Saint-Ouen, France.",https://www.alstom.com/,mediarelations@alstomgroup.com,,https://www.alstom.com/sites/alstom.com/files/2018/07/16/ethics_and_sustainable_development_charter_for_alstoms_suppliers_and_contractors_.pdf,,,https://www.alstom.com/sites/alstom.com/files/2020/06/05/Alstom_CodeofEthics_2020_EN.pdf,https://www.alstom.com/sites/alstom.com/files/2022/09/29/Modern_Slavery_Act_Transparency_Statement_ATUKL_2021.pdf,https://www.alstom.com/sites/alstom.com/files/2023/07/10/Alstom_CSR_Brochure_2023_EN.pdf,,,,,,,,,,,,,,,,,Inge De Venter,The Chief Compliance Officer,inge.de-venter@alstomgroup.com,inge.de-venter@alstomgroup.com,
Alteryx,No,,Data Analytics,United States,Kevin Rubin,Kevin,Rubin,"131 S. Lincoln Ave. Irvine, CA 92614 United States",https://www.alteryx.com/,support@alteryx.com,,,,https://www.alteryx.com/wp-content/uploads/media/pdfs/alteryx-human-rights-statement.pdf,https://investor.alteryx.com/files/doc_downloads/Code-of-Business-Conduct-and-Ethics-Feb-2023.pdf,https://www.alteryx.com/wp-content/uploads/media/legal/alteryx-modern-slavery-act-transparency-statement.pdf,https://www.alteryx.com/wp-content/uploads/media/report/ayx_2022-global-impact-report_1920x1080.pdf,,,,,,,,,,,,,,,,,Jennifer Yuen,ESG & Sustainability Manager,socialimpact@alteryx.com,,
Altria,No,,Tabacco,United States,Billy Gifford,Billy,Gifford,"6601 West Broad Street Richmond, VA 23230 United States",https://www.altria.com/,investor.relations@altria.com,,https://www.altria.com/-/media/Project/Altria/Altria/responsibility/supply-chain-responsibility/supplier-code-of-conduct.pdf,,,https://www.altria.com/-/media/Project/Altria/Altria/people-and-careers/people-and-culture/altria_code_of_conduct.pdf,,https://www.altria.com/-/media/Project/Altria/Altria/responsibility/esg-reporting-and-data/Engage-Lead-2022-Report.pdf?src=resp-at-a-glance,,,,,,,,,,,,,,,,,Jennifer Hunter,Senior Vice President Corporate Citizenship & Chief Sustainability Officer,https://www.altria.com/contact-us/Sustainability-and-ESG,,
Amazon,No,,Retail ,United States,Andy Jassy,Andy,Jassy,"1200 12th Ave Seattle, WA 98144 United States",https://www.amazon.com/,cs-reply@amazon.com,,https://sustainability.aboutamazon.com/amazon_supply_chain_standards_english.pdf,,https://sustainability.aboutamazon.com/human-rights/principles,https://ir.aboutamazon.com/corporate-governance/documents-and-charters/code-of-business-conduct-and-ethics/default.aspx,https://sustainability.aboutamazon.com/modern-slavery-statement.pdf,https://sustainability.aboutamazon.com/2022-sustainability-report.pdf,https://sustainability.aboutamazon.com/amazon-supplier-manual-english.pdf,"Amazon
Supply Chain
Standards Manual",,"Recruitment and related fees: Workers must not be required to pay recruitment, hiring, agents’ or brokers’ fees, or other related fees or costs for their employment either in their home country, any intermediate country, or the country where work is performed. Suppliers should recruit workers in a manner that prevents worker-paid fees. Suppliers may not require workers to make any financial deposits into accounts. If workers have paid fees in violation of these Standards, Suppliers are required to bear or reimburse to workers the cost of any such fees incurred at any point during the recruitment process, even if outside of the Suppliers’ direct control of the recruitment process",Supply Chain Standards,https://sustainability.aboutamazon.com/amazon_supply_chain_standards_english.pdf,"If workers have paid fees in violation of these Standards, Suppliers are required to bear or reimburse to workers the cost of any such fees incurred at any point during the recruitment process, even if outside of the Suppliers’ direct control of the recruitment process",https://sustainability.aboutamazon.com/amazon_supply_chain_standards_english.pdf,,,,,"Personal identification documents: Suppliers must not cause workers to lose possession of or access to their personal documents. Suppliers must not hold (for safekeeping), destroy, conceal, confiscate, or require workers to surrender government issued identification, passports, immigration documents, or work permits to any party, including third party agents",Supply Chain Standards,https://sustainability.aboutamazon.com/amazon_supply_chain_standards_english.pdf,,Kara Hurst,"Vice President, Head of Worldwide Sustainability",sustainability-data-initiative@amazon.com,,Responsible Business Alliance
AMC Entertainment ,No,,Entertainment,United States,Adam Aron,Adam,Aron,"11500 W Olympic Blvd Los Angeles, CA 90064 United States",https://www.amctheatres.com/,rnoonan@amctheatres.com,,,,,,,,,,,,,,,,,,,,,,,,Carla C. Chavarria,"Senior Vice President, Human Resources",InvestorRelations@amctheatres.com,,
AMC Networks,Yes,Cablevision,Entertainment,United States,Kristin Dolan,Kristin,Dolan,"11 Penn Plaza 11th Floor New York, NY 10001",https://www.amcnetworks.com/,info@amcnetworks.com,,https://investors.amcnetworks.com/static-files/66811f56-aeda-4825-b679-f26265d54507,,,https://investors.amcnetworks.com/static-files/af8da55d-8a43-4e32-ae1b-f081bd50ae7b,,,,,,,,,,,,,,,,,,,,,,,
AMD,No,,Electronics,United States,Lisa Su,Lisa,Su," One AMD Place, P.O. Box 3453, Sunnyvale, CA 94088-3453, USA",https://www.amd.com/,https://www.amd.com/en/forms/feedback/email-communications-feedback.html,,https://www.amd.com/en/corporate/corporate-responsibility/amd-supplier-code-of-conduct.html,,https://www.amd.com/system/files/documents/human-rights-policy.pdf,https://www.amd.com/system/files/documents/worldwide-standards-of-business-conduct.pdf,https://www.amd.com/content/dam/amd/en/documents/corporate/cr/statement-human-trafficking-forced-labor.pdf,https://www.amd.com/content/dam/amd/en/documents/corporate/cr/2022-23-amd-cr-report.pdf,,,,"Workers shall not be required to pay employers' agents or sub-agents' recruiment fees or other related fees for their employment. If any such fees are found to have been paid by workers, such fees shall be repaid to the worker",Statement on Modern Slavery and Human Trafficking,https://www.amd.com/content/dam/amd/en/documents/corporate/cr/statement-human-trafficking-forced-labor.pdf,"If any such fees are found to have been paid by workers, such fees shall be repaid to the worker",https://www.amd.com/content/dam/amd/en/documents/corporate/cr/statement-human-trafficking-forced-labor.pdf,,,,,,,,,Justin Murrill,Director of Corporate Responsibility,,,Responsible Business Alliance
Amdocs,,,Telecommunications,United States,Shuky Sheffer,Shuky,Sheffer,"5390 Legacy Drive, Building 3Plano, TX 75024United States",https://www.amdocs.com/,info@amdocs.com,,https://www.amdocs.com/sites/default/files/2021-09/Supplier-Code-of-Conduct.pdf,,https://www.amdocs.com/sites/default/files/2021-07/HR.PDF,https://dwww.amdocs.com/sites/default/files/2021-07/Code-of-ethics-Aug20.pdf,,https://www.amdocs.com/sites/default/files/2023-08/CSR-ESG-Report-FY2022-June2023-final.pdf,,,,,,,,,,,,,Supplier shall not withhold employees’ original government-issued identifications and travel documents,Supplier Code of Conduct,https://www.amdocs.com/sites/default/files/2021-09/Supplier-Code-of-Conduct.pdf,,Idit Duvdevany Aronsohn,Head of Corporate Responsibility,SocialResponsibility@amdocs.com,Idit.Duvdevany@amdocs.com ,
American Airlines,No,,Aviation,United States,Doug Parker,Doug,Parker,"1100 Terminal C, DFW Airport, TX 75261",https://www.aa.com/,mediarelations@aa.com,,https://www.aa.com/content/images/customer-service/about-us/corporate-governance/standards-of-business-conduct-for-suppliers.pdf,,https://www.aa.com/i18n/customer-service/about-us/human-rights-statement.jsp,https://www.aa.com/content/images/customer-service/about-us/corporate-governance/standards-of-business-conduct-for-employees.pdf,"https://www.aa.com/i18n/customer-service/about-us/modern-slavery-act-transparency-statement.jsp?locale=en_GB#:~:text=We%20do%20not%20knowingly%20conduct,forced%20labour%2C%20or%20human%20trafficking.",https://s202.q4cdn.com/986123435/files/images/esg/aa-sustainability-report-2022.pdf,,,,"Upon request, Suppliers provide us access to personal documentation (e.g., government-issued identification, passports, or work permits) and pay agency recruitment and/or employment fees and expenses.",Standards of Business Conduct for Suppliers,https://www.aa.com/content/images/customer-service/about-us/corporate-governance/standards-of-business-conduct-for-suppliers.pdf,,,,,,,"Upon request, Suppliers provide us access to personal documentation (e.g., government-issued identification, passports, or work permits) and pay agency recruitment and/or employment fees and expenses.",Standards of Business Conduct for Suppliers,https://www.aa.com/content/images/customer-service/about-us/corporate-governance/standards-of-business-conduct-for-suppliers.pdf,,Jill Blickstein,"Vice President, Sustainability",Business.Ethics.Office@aa.com,,
